{
  "type": "FeatureCollection",
  "features": [
    {
      "type": "Feature",
      "properties": {
        "norad_id": 54259,
        "name": "EUTELSAT 10B",
        "group": "eutelsat",
        "lat": 0.010975887237283988,
        "lon": 81.15649045858531,
        "alt_km": 35784.34795080518,
        "timestamp": "2025-12-21T22:41:41.119362+00:00",
        "meta_object_name": "EUTELSAT 10B",
        "meta_object_id": "2022-157A",
        "meta_epoch": "2025-12-21T08:06:36.111744",
        "meta_mean_motion": 1.00265489,
        "meta_eccentricity": 0.00012525,
        "meta_inclination": 0.0606,
        "meta_ra_of_asc_node": 94.5139,
        "meta_arg_of_pericenter": 36.2048,
        "meta_mean_anomaly": 91.1001,
        "meta_ephemeris_type": 0,
        "meta_classification_type": "U",
        "meta_norad_cat_id": 54259,
        "meta_element_set_no": 999,
        "meta_rev_at_epoch": 1124,
        "meta_bstar": 0,
        "meta_mean_motion_dot": 9e-07,
        "meta_mean_motion_ddot": 0,
        "tle_line1": "1 54259U 22157A   25355.33791796  .00000090  00000+0  00000+0 0  9994",
        "tle_line2": "2 54259   0.0606  94.5139 0001252  36.2048  91.1001  1.00265489 11248"
      },
      "geometry": {
        "type": "Point",
        "coordinates": [
          81.15649045858531,
          0.010975887237283988
        ]
      }
    },
    {
      "type": "Feature",
      "properties": {
        "norad_id": 59346,
        "name": "EUTELSAT 36D",
        "group": "eutelsat",
        "lat": 0.04861295422514623,
        "lon": 107.0279926875358,
        "alt_km": 35786.17584262397,
        "timestamp": "2025-12-21T22:41:41.119374+00:00",
        "meta_object_name": "EUTELSAT 36D",
        "meta_object_id": "2024-059A",
        "meta_epoch": "2025-12-21T11:39:26.603712",
        "meta_mean_motion": 1.00272156,
        "meta_eccentricity": 4.384e-05,
        "meta_inclination": 0.0244,
        "meta_ra_of_asc_node": 29.7996,
        "meta_arg_of_pericenter": 338.8651,
        "meta_mean_anomaly": 292.3516,
        "meta_ephemeris_type": 0,
        "meta_classification_type": "U",
        "meta_norad_cat_id": 59346,
        "meta_element_set_no": 999,
        "meta_rev_at_epoch": 636,
        "meta_bstar": 0,
        "meta_mean_motion_dot": 0,
        "meta_mean_motion_ddot": 0,
        "tle_line1": "1 59346U 24059A   25355.48572458  .00000000  00000+0  00000+0 0  9998",
        "tle_line2": "2 59346   0.0244  29.7996 0000438 338.8651 292.3516  1.00272156  6367"
      },
      "geometry": {
        "type": "Point",
        "coordinates": [
          107.0279926875358,
          0.04861295422514623
        ]
      }
    }
  ]
}